H1 CPF 01  gfz 2022 04 25 00  6151 tandemx   
H2 1003001  6202 36605    2022 04 25 00 59 42 2022 04 30 00 00 42   120 1 1  0 0 0
H9
10 0 59696  62622.000000  0    2713866.225   -385477.670   6309001.492
10 0 59696  62742.000000  0    1861159.536   -580676.531   6595998.291
10 0 59696  62862.000000  0     972781.141   -750506.932   6767067.655
10 0 59696  62982.000000  0      64711.474   -891522.185   6819223.258
10 0 59696  63102.000000  0    -846678.116  -1001060.674   6751555.184
10 0 59696  63222.000000  0   -1744919.492  -1077296.037   6565244.070
10 0 59696  63342.000000  0   -2613743.705  -1119267.446   6263541.085
10 0 59696  63462.000000  0   -3437374.170  -1126889.908   5851715.697
10 0 59696  63582.000000  0   -4200815.912  -1100945.203   5336971.078
10 0 59696  63702.000000  0   -4890134.297  -1043054.076   4728324.397
10 0 59696  63822.000000  0   -5492716.997   -955628.600   4036453.567
10 0 59696  63942.000000  0   -5997513.096   -841806.058   3273512.669
10 0 59696  64062.000000  0   -6395244.358   -705365.660   2452920.392
10 0 59696  64182.000000  0   -6678586.763   -550629.915   1589123.904
10 0 59696  64302.000000  0   -6842315.049   -382352.883    697339.010
10 0 59696  64422.000000  0   -6883404.506   -205598.443   -206725.713
10 0 59696  64542.000000  0   -6801088.913    -25610.998  -1107154.516
10 0 59696  64662.000000  0   -6596871.987    152317.823  -1988113.847
10 0 59696  64782.000000  0   -6274494.149    322982.318  -2834137.040
10 0 59696  64902.000000  0   -5839856.237    481393.154  -3630402.680
10 0 59696  65022.000000  0   -5300898.161    622902.019  -4362997.289
10 0 59696  65142.000000  0   -4667440.623    743316.597  -5019156.514
10 0 59696  65262.000000  0   -3950993.089    839003.461  -5587481.645
10 0 59696  65382.000000  0   -3164534.350    906976.727  -6058128.517
10 0 59696  65502.000000  0   -2322270.050    944970.240  -6422966.454
10 0 59696  65622.000000  0   -1439373.730    951493.434  -6675707.159
10 0 59696  65742.000000  0    -531713.666    925869.918  -6812002.113
10 0 59696  65862.000000  0     384427.130    868257.369  -6829507.696
10 0 59696  65982.000000  0    1292634.541    779649.198  -6727922.198
10 0 59696  66102.000000  0    2176651.545    661857.672  -6508992.498
10 0 59696  66222.000000  0    3020663.290    517478.939  -6176486.828
10 0 59696  66342.000000  0    3809575.923    349840.634  -5736136.288
10 0 59696  66462.000000  0    4529284.027    162931.440  -5195545.454
10 0 59696  66582.000000  0    5166924.844    -38684.711  -4564073.207
10 0 59696  66702.000000  0    5711115.173   -249969.462  -3852681.590
10 0 59696  66822.000000  0    6152163.448   -465524.021  -3073754.543
10 0 59696  66942.000000  0    6482254.039   -679714.248  -2240889.733
10 0 59696  67062.000000  0    6695599.098   -886804.044  -1368664.172
10 0 59696  67182.000000  0    6788552.033  -1081093.362   -472378.021
10 0 59696  67302.000000  0    6759679.865  -1257058.025    432217.685
10 0 59696  67422.000000  0    6609792.214  -1409487.724   1329205.020
10 0 59696  67542.000000  0    6341924.672  -1533618.998   2202787.644
10 0 59696  67662.000000  0    5961277.507  -1625258.831   3037578.832
10 0 59696  67782.000000  0    5475109.558  -1680895.382   3818880.238
10 0 59696  67902.000000  0    4892592.162  -1697794.701   4532945.851
10 0 59696  68022.000000  0    4224626.913  -1674079.306   5167225.874
10 0 59696  68142.000000  0    3483632.996  -1608787.130   5710587.169
10 0 59696  68262.000000  0    2683306.919  -1501910.788   6153506.299
10 0 59696  68382.000000  0    1838362.224  -1354415.892   6488230.561
10 0 59696  68502.000000  0     964254.399  -1168238.639   6708908.341
10 0 59696  68622.000000  0      76894.772   -946261.520   6811685.761
10 0 59696  68742.000000  0    -807639.787   -692268.278   6794768.623
10 0 59696  68862.000000  0   -1673396.818   -410879.467   6658451.063
10 0 59696  68982.000000  0   -2504834.525   -107468.694   6405110.741
10 0 59696  69102.000000  0   -3287099.983    211939.015   6039170.865
10 0 59696  69222.000000  0   -4006296.259    540785.010   5567028.720
10 0 59696  69342.000000  0   -4649733.935    872109.009   4996949.848
10 0 59696  69462.000000  0   -5206161.708   1198693.426   4338929.339
10 0 59696  69582.000000  0   -5665971.692   1513217.354   3604520.576
10 0 59696  69702.000000  0   -6021373.801   1808416.573   2806634.717
10 0 59696  69822.000000  0   -6266536.728   2077246.239   1959313.952
10 0 59696  69942.000000  0   -6397692.072   2313042.465   1077481.628
10 0 59696  70062.000000  0   -6413197.482   2509679.128    176672.613
10 0 59696  70182.000000  0   -6313556.093   2661714.632   -727248.836
10 0 59696  70302.000000  0   -6101392.778   2764525.260  -1618377.516
10 0 59696  70422.000000  0   -5781387.897   2814422.398  -2481055.673
10 0 59696  70542.000000  0   -5360169.127   2808750.167  -3300156.033
10 0 59696  70662.000000  0   -4846165.275   2745960.158  -4061350.818
10 0 59696  70782.000000  0   -4249427.485   2625663.010  -4751362.225
10 0 59696  70902.000000  0   -3581422.245   2448655.463  -5358189.493
10 0 59696  71022.000000  0   -2854802.833   2216923.546  -5871308.702
10 0 59696  71142.000000  0   -2083165.114   1933622.324  -6281845.501
10 0 59696  71262.000000  0   -1280789.539   1603031.812  -6582717.720
10 0 59696  71382.000000  0    -462377.939   1230490.902  -6768745.091
10 0 59696  71502.000000  0     357211.340    822310.853  -6836728.573
10 0 59696  71622.000000  0    1163225.761    385670.407  -6785499.898
10 0 59696  71742.000000  0    1941279.080    -71507.942  -6615940.925
10 0 59696  71862.000000  0    2677602.139   -540698.182  -6330968.923
10 0 59696  71982.000000  0    3359282.403  -1012925.245  -5935492.378
10 0 59696  72102.000000  0    3974488.215  -1478931.634  -5436334.217
10 0 59696  72222.000000  0    4512675.643  -1929354.707  -4842126.234
10 0 59696  72342.000000  0    4964774.562  -2354912.648  -4163170.973
10 0 59696  72462.000000  0    5323348.780  -2746593.900  -3411273.403
10 0 59696  72582.000000  0    5582728.116  -3095846.763  -2599543.937
10 0 59696  72702.000000  0    5739108.197  -3394764.894  -1742173.979
10 0 59696  72822.000000  0    5790614.345  -3636264.085   -854188.893
10 0 59696  72942.000000  0    5737328.454  -3814246.591     48817.936
10 0 59696  73062.000000  0    5581276.502  -3923747.628    950964.655
10 0 59696  73182.000000  0    5326377.020  -3961061.532   1836368.621
10 0 59696  73302.000000  0    4978349.895  -3923841.206   2689436.122
10 0 59696  73422.000000  0    4544588.872  -3811169.308   3495144.511
10 0 59696  73542.000000  0    4034002.834  -3623600.425   4239312.711
10 0 59696  73662.000000  0    3456828.732  -3363173.809   4908855.374
10 0 59696  73782.000000  0    2824419.168  -3033394.599   5492014.153
10 0 59696  73902.000000  0    2149013.638  -2639185.043   5978562.009
10 0 59696  74022.000000  0    1443496.217  -2186807.801   6359978.298
10 0 59696  74142.000000  0     721146.155  -1683763.339   6629591.873
10 0 59696  74262.000000  0      -4613.968  -1138662.792   6782691.795
10 0 59696  74382.000000  0    -720467.743   -561078.678   6816604.342
10 0 59696  74502.000000  0   -1413448.189     38623.643   6730736.192
10 0 59696  74622.000000  0   -2071171.686    649471.576   6526584.273
10 0 59696  74742.000000  0   -2682058.765   1260085.312   6207711.495
10 0 59696  74862.000000  0   -3235538.697   1858888.838   5779688.676
10 0 59696  74982.000000  0   -3722235.063   2434329.133   5250003.750
10 0 59696  75102.000000  0   -4134129.410   2975100.644   4627937.117
10 0 59696  75222.000000  0   -4464698.994   3470369.743   3924404.117
10 0 59696  75342.000000  0   -4709026.403   3909994.505   3151766.867
10 0 59696  75462.000000  0   -4863877.153   4284735.718   2323617.952
10 0 59696  75582.000000  0   -4927744.165   4586455.013   1454539.827
10 0 59696  75702.000000  0   -4900856.829   4808293.227    559842.285
10 0 59696  75822.000000  0   -4785155.088   4944823.355   -344714.295
10 0 59696  75942.000000  0   -4584229.823   4992177.068  -1243205.257
10 0 59696  76062.000000  0   -4303227.193   4948139.642  -2119832.812
10 0 59696  76182.000000  0   -3948722.302   4812210.144  -2959211.286
10 0 59696  76302.000000  0   -3528566.065   4585625.985  -3746643.274
10 0 59696  76422.000000  0   -3051708.145   4271351.966  -4468377.874
10 0 59696  76542.000000  0   -2528002.895   3874035.771  -5111846.906
10 0 59696  76662.000000  0   -1968003.796   3399932.969  -5665876.390
10 0 59696  76782.000000  0   -1382749.627   2856802.010  -6120872.415
10 0 59696  76902.000000  0    -783546.499   2253770.655  -6468976.848
10 0 59696  77022.000000  0    -181751.291   1601178.830  -6704190.882
10 0 59696  77142.000000  0     411439.336    910400.859  -6822467.831
10 0 59696  77262.000000  0     985191.890    193649.975  -6821775.920
10 0 59696  77382.000000  0    1529230.053   -536233.685  -6702129.658
10 0 59696  77502.000000  0    2034013.905  -1266007.867  -6465587.922
10 0 59696  77622.000000  0    2490903.522  -1982261.974  -6116222.537
10 0 59696  77742.000000  0    2892305.381  -2671657.354  -5660055.996
10 0 59696  77862.000000  0    3231799.907  -3321173.138  -5104969.892
10 0 59696  77982.000000  0    3504247.566  -3918353.386  -4460578.527
10 0 59696  78102.000000  0    3705868.922  -4451546.812  -3738071.873
10 0 59696  78222.000000  0    3834300.174  -4910137.687  -2950031.806
10 0 59696  78342.000000  0    3888622.879  -5284764.256  -2110220.345
10 0 59696  78462.000000  0    3869363.829  -5567517.644  -1233341.145
10 0 59696  78582.000000  0    3778465.981  -5752114.680   -334780.739
10 0 59696  78702.000000  0    3619229.940  -5834041.280    569666.842
10 0 59696  78822.000000  0    3396227.160  -5810661.472   1464084.620
10 0 59696  78942.000000  0    3115187.829  -5681289.261   2332722.603
10 0 59696  79062.000000  0    2782863.841  -5447219.078   3160284.099
99
